MALLIGYONG-1            
1 58400U 23179A   24067.60173806  .00006309  00000+0  28474-3 0  9994
2 58400  97.4190 315.9662 0007814 256.1009 103.9358 15.21321016 16271
